{"type": "FeatureCollection", "features": [ {"type": "Feature", "properties": {"norad_id": 28659, "name": "DIRECTV 8", "group": "intelsat", "lat": 0.026202537576658306, "lon": 46.75055334683315, "alt_km": 35796.86059099292, "timestamp": "2025-12-10T05:46:13.465105+00:00", "meta": {"OBJECT_NAME": "DIRECTV 8", "OBJECT_ID": "2005-019A", "EPOCH": "2025-12-09T14:43:08.593824", "MEAN_MOTION": 1.00271975, "ECCENTRICITY": 0.0003178, "INCLINATION": 0.0169, "RA_OF_ASC_NODE": 7.3328, "ARG_OF_PERICENTER": 255.58, "MEAN_ANOMALY": 277.4302, "EPHEMERIS_TYPE": 0, "CLASSIFICATION_TYPE": "U", "NORAD_CAT_ID": 28659, "ELEMENT_SET_NO": 999, "REV_AT_EPOCH": 7517, "BSTAR": 0, "MEAN_MOTION_DOT": 3e-08, "MEAN_MOTION_DDOT": 0}, "tle": {"line1": "1 28659U 05019A   25343.61329391  .00000003  00000+0  00000+0 0  9997", "line2": "2 28659   0.0169   7.3328 0003178 255.5800 277.4302  1.00271975 75172"}}, "geometry": {"type": "Point", "coordinates": [46.75055334683315, 0.026202537576658306]}}, {"type": "Feature", "properties": {"norad_id": 28702, "name": "GALAXY 28 (G-28)", "group": "intelsat", "lat": -0.187143683425325, "lon": 77.09501849948586, "alt_km": 35797.68881973443, "timestamp": "2025-12-10T05:46:13.465131+00:00", "meta": {"OBJECT_NAME": "GALAXY 28 (G-28)", "OBJECT_ID": "2005-022A", "EPOCH": "2025-12-09T12:29:48.392736", "MEAN_MOTION": 1.00271081, "ECCENTRICITY": 0.00026859, "INCLINATION": 2.8104, "RA_OF_ASC_NODE": 81.3192, "ARG_OF_PERICENTER": 179.8142, "MEAN_ANOMALY": 276.1436, "EPHEMERIS_TYPE": 0, "CLASSIFICATION_TYPE": "U", "NORAD_CAT_ID": 28702, "ELEMENT_SET_NO": 999, "REV_AT_EPOCH": 5007, "BSTAR": 0, "MEAN_MOTION_DOT": -1.85e-06, "MEAN_MOTION_DDOT": 0}, "tle": {"line1": "1 28702U 05022A   25343.52069899 -.00000185  00000+0  00000+0 0  9996", "line2": "2 28702   2.8104  81.3192 0002685 179.8142 276.1436  1.00271081 50074"}}, "geometry": {"type": "Point", "coordinates": [77.09501849948586, -0.187143683425325]}}, {"type": "Feature", "properties": {"norad_id": 29236, "name": "GALAXY 16 (G-16)", "group": "intelsat", "lat": 0.010934653478386624, "lon": 66.76556330252257, "alt_km": 35797.88186402742, "timestamp": "2025-12-10T05:46:13.465149+00:00", "meta": {"OBJECT_NAME": "GALAXY 16 (G-16)", "OBJECT_ID": "2006-023A", "EPOCH": "2025-12-09T13:15:09.203040", "MEAN_MOTION": 1.002722, "ECCENTRICITY": 0.0002825, "INCLINATION": 0.037, "RA_OF_ASC_NODE": 155.0146, "ARG_OF_PERICENTER": 97.4048, "MEAN_ANOMALY": 285.8988, "EPHEMERIS_TYPE": 0, "CLASSIFICATION_TYPE": "U", "NORAD_CAT_ID": 29236, "ELEMENT_SET_NO": 999, "REV_AT_EPOCH": 7107, "BSTAR": 0, "MEAN_MOTION_DOT": -1.24e-06, "MEAN_MOTION_DDOT": 0}, "tle": {"line1": "1 29236U 06023A   25343.55218985 -.00000124  00000+0  00000+0 0  9999", "line2": "2 29236   0.0370 155.0146 0002825  97.4048 285.8988  1.00272200 71072"}}, "geometry": {"type": "Point", "coordinates": [66.76556330252257, 0.010934653478386624]}}, {"type": "Feature", "properties": {"norad_id": 29494, "name": "DIRECTV 9S", "group": "intelsat", "lat": -0.5993229111134003, "lon": 64.57680737417343, "alt_km": 35799.2541138982, "timestamp": "2025-12-10T05:46:13.465162+00:00", "meta": {"OBJECT_NAME": "DIRECTV 9S", "OBJECT_ID": "2006-043A", "EPOCH": "2025-12-09T13:13:51.873312", "MEAN_MOTION": 1.00270727, "ECCENTRICITY": 0.0003157, "INCLINATION": 1.9321, "RA_OF_ASC_NODE": 83.2391, "ARG_OF_PERICENTER": 178.3097, "MEAN_ANOMALY": 274.2425, "EPHEMERIS_TYPE": 0, "CLASSIFICATION_TYPE": "U", "NORAD_CAT_ID": 29494, "ELEMENT_SET_NO": 999, "REV_AT_EPOCH": 4948, "BSTAR": 0, "MEAN_MOTION_DOT": -1.11e-06, "MEAN_MOTION_DDOT": 0}, "tle": {"line1": "1 29494U 06043A   25343.55129483 -.00000111  00000+0  00000+0 0  9997", "line2": "2 29494   1.9321  83.2391 0003157 178.3097 274.2425  1.00270727 49480"}}, "geometry": {"type": "Point", "coordinates": [64.57680737417343, -0.5993229111134003]}}, {"type": "Feature", "properties": {"norad_id": 31307, "name": "GALAXY 17 (G-17)", "group": "intelsat", "lat": -0.04752052650503069, "lon": 80.76508545419566, "alt_km": 35810.55962007519, "timestamp": "2025-12-10T05:46:13.465173+00:00", "meta": {"OBJECT_NAME": "GALAXY 17 (G-17)", "OBJECT_ID": "2007-016B", "EPOCH": "2025-12-09T12:27:47.151072", "MEAN_MOTION": 1.00272575, "ECCENTRICITY": 0.00060579, "INCLINATION": 2.4919, "RA_OF_ASC_NODE": 82.3182, "ARG_OF_PERICENTER": 162.3452, "MEAN_ANOMALY": 295.7984, "EPHEMERIS_TYPE": 0, "CLASSIFICATION_TYPE": "U", "NORAD_CAT_ID": 31307, "ELEMENT_SET_NO": 999, "REV_AT_EPOCH": 6790, "BSTAR": 0, "MEAN_MOTION_DOT": -2.04e-06, "MEAN_MOTION_DDOT": 0}, "tle": {"line1": "1 31307U 07016B   25343.51929573 -.00000204  00000+0  00000+0 0  9991", "line2": "2 31307   2.4919  82.3182 0006057 162.3452 295.7984  1.00272575 67901"}}, "geometry": {"type": "Point", "coordinates": [80.76508545419566, -0.04752052650503069]}}, {"type": "Feature", "properties": {"norad_id": 31862, "name": "DIRECTV 10", "group": "intelsat", "lat": -0.003963983915064143, "lon": 62.982844608295586, "alt_km": 35788.02526495269, "timestamp": "2025-12-10T05:46:13.465185+00:00", "meta": {"OBJECT_NAME": "DIRECTV 10", "OBJECT_ID": "2007-032A", "EPOCH": "2025-12-09T14:47:45.651840", "MEAN_MOTION": 1.00270135, "ECCENTRICITY": 4.26e-05, "INCLINATION": 0.0152, "RA_OF_ASC_NODE": 159.7626, "ARG_OF_PERICENTER": 48.0937, "MEAN_ANOMALY": 349.9052, "EPHEMERIS_TYPE": 0, "CLASSIFICATION_TYPE": "U", "NORAD_CAT_ID": 31862, "ELEMENT_SET_NO": 999, "REV_AT_EPOCH": 4369, "BSTAR": 0, "MEAN_MOTION_DOT": -1e-06, "MEAN_MOTION_DDOT": 0}, "tle": {"line1": "1 31862U 07032A   25343.61650060 -.00000100  00000+0  00000+0 0  9993", "line2": "2 31862   0.0152 159.7626 0000426  48.0937 349.9052  1.00270135 43692"}}, "geometry": {"type": "Point", "coordinates": [62.982844608295586, -0.003963983915064143]}}, {"type": "Feature", "properties": {"norad_id": 32253, "name": "INTELSAT 11 (IS-11)", "group": "intelsat", "lat": -1.8968620526337256, "lon": 42.53901287998701, "alt_km": 36168.62244290423, "timestamp": "2025-12-10T05:46:13.465196+00:00", "meta": {"OBJECT_NAME": "INTELSAT 11 (IS-11)", "OBJECT_ID": "2007-044B", "EPOCH": "2025-12-09T14:42:38.643264", "MEAN_MOTION": 0.99047626, "ECCENTRICITY": 0.0009092, "INCLINATION": 3.0722, "RA_OF_ASC_NODE": 81.0087, "ARG_OF_PERICENTER": 164.7081, "MEAN_ANOMALY": 292.9928, "EPHEMERIS_TYPE": 0, "CLASSIFICATION_TYPE": "U", "NORAD_CAT_ID": 32253, "ELEMENT_SET_NO": 999, "REV_AT_EPOCH": 6657, "BSTAR": 0, "MEAN_MOTION_DOT": 7.4e-07, "MEAN_MOTION_DDOT": 0}, "tle": {"line1": "1 32253U 07044B   25343.61294726  .00000074  00000+0  00000+0 0  9993", "line2": "2 32253   3.0722  81.0087 0009092 164.7081 292.9928  0.99047626 66570"}}, "geometry": {"type": "Point", "coordinates": [42.53901287998701, -1.8968620526337256]}}, {"type": "Feature", "properties": {"norad_id": 32388, "name": "HORIZONS-2", "group": "intelsat", "lat": 0.3499296082369844, "lon": 91.98033285260851, "alt_km": 35807.701764974714, "timestamp": "2025-12-10T05:46:13.465208+00:00", "meta": {"OBJECT_NAME": "HORIZONS-2", "OBJECT_ID": "2007-063B", "EPOCH": "2025-12-09T12:34:03.796320", "MEAN_MOTION": 1.00270503, "ECCENTRICITY": 0.00050202, "INCLINATION": 2.1132, "RA_OF_ASC_NODE": 82.9918, "ARG_OF_PERICENTER": 187.0359, "MEAN_ANOMALY": 283.219, "EPHEMERIS_TYPE": 0, "CLASSIFICATION_TYPE": "U", "NORAD_CAT_ID": 32388, "ELEMENT_SET_NO": 999, "REV_AT_EPOCH": 6591, "BSTAR": 0, "MEAN_MOTION_DOT": -2.51e-06, "MEAN_MOTION_DDOT": 0}, "tle": {"line1": "1 32388U 07063B   25343.52365505 -.00000251  00000+0  00000+0 0  9995", "line2": "2 32388   2.1132  82.9918 0005020 187.0359 283.2190  1.00270503 65916"}}, "geometry": {"type": "Point", "coordinates": [91.98033285260851, 0.3499296082369844]}}, {"type": "Feature", "properties": {"norad_id": 32729, "name": "DIRECTV 11", "group": "intelsat", "lat": 0.010566044300464561, "lon": 66.57571309204998, "alt_km": 35787.28137426439, "timestamp": "2025-12-10T05:46:13.465220+00:00", "meta": {"OBJECT_NAME": "DIRECTV 11", "OBJECT_ID": "2008-013A", "EPOCH": "2025-12-09T10:14:01.462848", "MEAN_MOTION": 1.0027202, "ECCENTRICITY": 4.14e-05, "INCLINATION": 0.0295, "RA_OF_ASC_NODE": 191.9729, "ARG_OF_PERICENTER": 10.0555, "MEAN_ANOMALY": 290.7006, "EPHEMERIS_TYPE": 0, "CLASSIFICATION_TYPE": "U", "NORAD_CAT_ID": 32729, "ELEMENT_SET_NO": 999, "REV_AT_EPOCH": 4369, "BSTAR": 0, "MEAN_MOTION_DOT": -1.23e-06, "MEAN_MOTION_DDOT": 0}, "tle": {"line1": "1 32729U 08013A   25343.42640582 -.00000123  00000+0  00000+0 0  9998", "line2": "2 32729   0.0295 191.9729 0000414  10.0555 290.7006  1.00272020 43694"}}, "geometry": {"type": "Point", "coordinates": [66.57571309204998, 0.010566044300464561]}}, {"type": "Feature", "properties": {"norad_id": 32951, "name": "GALAXY 18 (G-18)", "group": "intelsat", "lat": 0.023837648025338307, "lon": 42.7893966485086, "alt_km": 35796.27891990355, "timestamp": "2025-12-10T05:46:13.465231+00:00", "meta": {"OBJECT_NAME": "GALAXY 18 (G-18)", "OBJECT_ID": "2008-024A", "EPOCH": "2025-12-09T14:42:01.200960", "MEAN_MOTION": 1.00272636, "ECCENTRICITY": 0.0003167, "INCLINATION": 0.0115, "RA_OF_ASC_NODE": 295.632, "ARG_OF_PERICENTER": 325.775, "MEAN_ANOMALY": 274.6906, "EPHEMERIS_TYPE": 0, "CLASSIFICATION_TYPE": "U", "NORAD_CAT_ID": 32951, "ELEMENT_SET_NO": 999, "REV_AT_EPOCH": 4395, "BSTAR": 0, "MEAN_MOTION_DOT": 2.7e-07, "MEAN_MOTION_DDOT": 0}, "tle": {"line1": "1 32951U 08024A   25343.61251390  .00000027  00000+0  00000+0 0  9995", "line2": "2 32951   0.0115 295.6320 0003167 325.7750 274.6906  1.00272636 43954"}}, "geometry": {"type": "Point", "coordinates": [42.7893966485086, 0.023837648025338307]}}]}